MEAN_MOTION;ECCENTRICITY;INCLINATION;RA_OF_ASC_NODE;ARG_OF_PERICENTER;MEAN_ANOMALY;BSTAR;MEAN_MOTION_DOT;MEAN_MOTION_DDOT;TYPE
14.32721489;0.0002297;45.0389;50.4534;1.4402;358.6451;0.00012478;2.02E-6;0;Orbcomm
14.32721583;0.0002287;45.0389;49.7982;2.1833;357.9023;0.00012524;2.03E-6;0;Orbcomm
14.32722237;0.0002229;45.039;45.2123;7.4998;352.5881;0.00012739;2.09E-6;0;Orbcomm
14.32722283;0.0002218;45.0391;44.8847;7.8455;352.2426;0.00012708;2.08E-6;0;Orbcomm
14.32722926;0.0002168;45.0392;40.2988;13.5651;346.5254;0.00013034;2.17E-6;0;Orbcomm
14.32722952;0.000216;45.0392;39.3161;15.0615;345.0295;0.00012644;2.06E-6;0;Orbcomm
14.32723049;0.0002151;45.0392;38.3335;16.2629;343.8286;0.00012525;2.03E-6;0;Orbcomm
14.32723364;0.0002123;45.0392;35.7129;19.6247;340.4681;0.00012436;2.01E-6;0;Orbcomm
14.327235;0.0002104;45.0392;34.4027;21.5138;338.5797;0.00012294;1.97E-6;0;Orbcomm
14.32723521;0.0002105;45.0392;34.0751;21.947;338.1466;0.00012181;1.94E-6;0;Orbcomm
14.32724451;0.0002028;45.0393;26.541;32.2737;327.8233;0.00011485;1.75E-6;0;Orbcomm
14.3272436;0.0002035;45.0393;24.9032;35.2895;324.8086;0.00010345;1.43E-6;0;Orbcomm
14.32724643;0.0001988;45.0393;21.6275;39.7363;320.3629;9.4805E-5;1.2E-6;0;Orbcomm
14.32725058;0.0001931;45.0394;17.0416;45.9233;314.1772;8.7332E-5;9.9E-7;0;Orbcomm
14.32725058;0.0001931;45.0394;17.0416;45.9233;314.1772;8.7332E-5;9.9E-7;0;Orbcomm
14.32725338;0.0001912;45.0395;13.766;50.6359;309.4657;8.2243E-5;8.5E-7;0;Orbcomm
14.32725457;0.00019;45.0395;11.1456;55.0203;305.0822;7.8211E-5;7.4E-7;0;Orbcomm
14.32725742;0.0001885;45.0396;7.8699;59.9996;300.1038;7.8873E-5;7.6E-7;0;Orbcomm
14.32725859;0.0001879;45.0396;6.2321;62.7236;297.3802;7.8695E-5;7.5E-7;0;Orbcomm
14.32726164;0.0001867;45.0396;2.9564;67.9013;292.2032;8.2163E-5;8.5E-7;0;Orbcomm
14.3272626;0.000187;45.0396;1.3187;70.1282;289.9766;8.1479E-5;8.3E-7;0;Orbcomm
14.32726491;0.0001863;45.0396;358.0431;75.5073;284.598;8.055E-5;8.0E-7;0;Orbcomm
14.3272673;0.0001871;45.0396;355.095;80.3663;279.7395;8.1627E-5;8.3E-7;0;Orbcomm
14.32726746;0.0001865;45.0395;353.7847;82.6442;277.4616;7.6787E-5;7.0E-7;0;Orbcomm
14.3272677;0.0001867;45.0396;353.4572;83.2589;276.847;7.654E-5;6.9E-7;0;Orbcomm
14.3272698;0.0001875;45.0395;350.5091;87.952;272.1542;7.3913E-5;6.2E-7;0;Orbcomm
14.32727062;0.0001882;45.0395;349.1989;90.3347;269.7716;7.1655E-5;5.6E-7;0;Orbcomm
14.32727143;0.0001892;45.0394;347.8887;92.4894;267.6169;6.9633E-5;5.0E-7;0;Orbcomm
14.32727351;0.000192;45.0394;343.9579;98.8862;261.2202;6.1284E-5;2.7E-7;0;Orbcomm
14.32727432;0.000193;45.0393;342.6477;100.799;259.3074;5.9598E-5;2.3E-7;0;Orbcomm
14.3272764;0.0001947;45.0393;339.3719;106.0649;254.0412;5.6327E-5;1.4E-7;0;Orbcomm
14.3272796;0.0002009;45.0391;335.1135;112.7545;247.3514;5.5791E-5;1.2E-7;0;Orbcomm
14.32727977;0.0002014;45.0391;334.786;113.405;246.7008;5.5799E-5;1.2E-7;0;Orbcomm
14.32728212;0.0002072;45.039;330.5275;119.8641;240.2412;5.4719E-5;9.0E-8;0;Orbcomm
14.32728326;0.0002094;45.039;328.8897;122.0929;238.0121;5.6995E-5;1.6E-7;0;Orbcomm
14.32728475;0.0002124;45.039;326.5966;125.64;234.4645;5.9351E-5;2.2E-7;0;Orbcomm
14.32728463;0.0002136;45.0389;326.269;126.3306;233.7738;5.7759E-5;1.8E-7;0;Orbcomm
14.32728597;0.0002225;45.0388;320.7004;134.0037;226.0994;5.3735E-5;7.0E-8;0;Orbcomm
14.32728646;0.0002241;45.0388;320.0453;134.7985;225.3044;5.4681E-5;9.0E-8;0;Orbcomm
14.32728738;0.0002297;45.0387;315.7869;140.4909;219.6106;5.0265E-5;-3.0E-8;0;Orbcomm
14.32728718;0.0002294;45.0387;315.1317;141.3062;218.795;4.8354E-5;-8.0E-8;0;Orbcomm
14.32728712;0.0002336;45.0386;312.8386;144.2903;215.81;4.3086E-5;-2.2E-7;0;Orbcomm
14.32728603;0.000238;45.0385;311.2007;146.4839;213.6159;3.3216E-5;-5.0E-7;0;Orbcomm
14.32728623;0.00024;45.0385;310.2181;147.7262;212.3732;3.1127E-5;-5.5E-7;0;Orbcomm
14.32728667;0.0002433;45.0385;308.2526;150.2885;209.81;2.9008E-5;-6.1E-7;0;Orbcomm
14.32728691;0.0002477;45.0384;306.6148;152.2658;207.8321;2.5385E-5;-7.1E-7;0;Orbcomm
14.32728812;0.0002582;45.0383;302.0288;157.886;202.2098;1.9549E-5;-8.7E-7;0;Orbcomm
14.32728836;0.0002595;45.0383;301.7012;158.2917;201.804;1.9976E-5;-8.6E-7;0;Orbcomm
14.32729101;0.0002755;45.0381;294.4944;166.9424;193.1495;2.0732E-5;-8.4E-7;0;Orbcomm
14.3272909;0.0002769;45.038;293.5116;168.0108;192.0805;1.87E-5;-8.9E-7;0;Orbcomm
14.32729222;0.0002841;45.0379;289.5806;172.4659;187.6231;2.375E-5;-7.6E-7;0;Orbcomm
14.32729362;0.0002875;45.0379;287.9427;174.1567;185.9313;2.977E-5;-5.9E-7;0;Orbcomm
14.3272945;0.0002965;45.0379;284.3393;178.1796;181.9062;3.135E-5;-5.5E-7;0;Orbcomm
14.32729518;0.0002986;45.0378;283.3565;179.1605;180.9247;3.4403E-5;-4.6E-7;0;Orbcomm
14.32729704;0.0003085;45.0378;278.7703;184.1276;175.9546;3.8176E-5;-3.6E-7;0;Orbcomm
14.32729883;0.0003189;45.0378;273.8565;189.2296;170.8492;3.8247E-5;-3.6E-7;0;Orbcomm
14.32729899;0.0003201;45.0378;273.529;189.566;170.5126;3.7933E-5;-3.7E-7;0;Orbcomm
14.32729959;0.0003302;45.0378;268.9428;194.2053;165.8701;2.9112E-5;-6.1E-7;0;Orbcomm
14.32730022;0.0003356;45.0378;265.9945;197.1671;162.9063;2.3697E-5;-7.6E-7;0;Orbcomm
14.32729995;0.0003394;45.0378;265.0118;198.1045;161.9681;2.0529E-5;-8.4E-7;0;Orbcomm
14.3273;0.0003488;45.0377;259.7704;202.8839;157.1852;1.0241E-5;-1.13E-6;0;Orbcomm
14.32729983;0.0003603;45.0378;254.857;207.8817;152.1837;6.3664E-7;-1.39E-6;0;Orbcomm
14.32729948;0.0003663;45.0378;251.9087;210.6481;149.4152;-1.6235E-6;-1.45E-6;0;Orbcomm
14.32729913;0.0003746;45.0377;247.3226;214.9823;145.0778;2.6154E-8;-1.41E-6;0;Orbcomm
14.32729861;0.0003646;45.0391;245.6832;216.0818;143.9783;-1.3312E-6;-1.44E-6;0;Orbcomm
14.32729775;0.0003729;45.0391;241.0971;220.4398;139.6172;-5.6814E-6;-1.56E-6;0;Orbcomm
14.3272973;0.0003807;45.0391;236.511;224.595;135.459;-7.9766E-6;-1.63E-6;0;Orbcomm
14.3272972;0.0003865;45.0391;233.5628;227.4072;132.6449;-8.7817E-6;-1.65E-6;0;Orbcomm
14.32729774;0.0003864;45.0391;232.5802;228.2111;131.8406;-5.9561E-6;-1.57E-6;0;Orbcomm
14.32729797;0.0003927;45.0391;228.6492;231.8012;128.2481;-3.908E-6;-1.51E-6;0;Orbcomm
14.32729771;0.0004126;45.0378;224.0647;235.745;124.3007;3.3259E-6;-1.32E-6;0;Orbcomm
14.32729834;0.0004186;45.0378;219.8063;239.5027;120.5406;1.9678E-6;-1.35E-6;0;Orbcomm
14.32729881;0.0004202;45.0378;219.1511;240.011;120.0319;3.7095E-6;-1.31E-6;0;Orbcomm
14.32729985;0.0004227;45.0378;214.8927;243.7297;116.3115;4.7917E-6;-1.28E-6;0;Orbcomm
14.32731426;0.0004286;45.0378;213.2549;245.2064;114.8337;0.00014565;2.59E-6;0;Orbcomm
14.32731962;0.0004336;45.0377;209.6516;248.2541;111.7844;0.00013823;2.39E-6;0;Orbcomm
14.32732101;0.000434;45.0377;208.9965;248.8282;111.2101;0.00014204;2.49E-6;0;Orbcomm
14.32732579;0.0004383;45.0376;204.4106;252.8928;107.1439;0.0001235;1.99E-6;0;Orbcomm
14.32733087;0.0004423;45.0375;199.8246;256.8835;103.1518;0.00011776;1.83E-6;0;Orbcomm
14.3273339;0.0004447;45.0374;197.5316;258.9194;101.1153;0.00011851;1.85E-6;0;Orbcomm
14.32733628;0.0004456;45.0374;195.8937;260.3072;99.7271;0.00011901;1.86E-6;0;Orbcomm
14.32734199;0.0004481;45.0372;192.2903;263.4582;96.5754;0.00012303;1.97E-6;0;Orbcomm
14.32734422;0.0004481;45.0372;190.98;264.5442;95.4894;0.0001243;2.01E-6;0;Orbcomm
14.32735054;0.0004509;45.0371;187.049;267.9253;92.1078;0.00012493;2.02E-6;0;Orbcomm
14.32735225;0.0004507;45.0371;186.3939;268.4941;91.5389;0.00012853;2.12E-6;0;Orbcomm
14.3273601;0.0004527;45.0371;181.4802;272.7323;87.3006;0.00012852;2.12E-6;0;Orbcomm
14.32736877;0.0004551;45.0371;176.5666;277.1101;82.9228;0.00013365;2.26E-6;0;Orbcomm
14.32736877;0.0004551;45.0371;176.5666;277.1101;82.9228;0.00013365;2.26E-6;0;Orbcomm
14.32737587;0.0004563;45.0371;171.9805;281.1946;78.8388;0.00013368;2.27E-6;0;Orbcomm
14.32738036;0.0004571;45.037;169.0322;283.7355;76.2982;0.00013373;2.27E-6;0;Orbcomm
14.32738256;0.0004565;45.037;167.0669;285.5208;74.5134;0.00013036;2.17E-6;0;Orbcomm
14.32738817;0.0004558;45.037;162.8083;289.2613;70.774;0.00012752;2.1E-6;0;Orbcomm
14.32739402;0.0004547;45.0368;157.8946;293.6472;66.3897;0.00011929;1.87E-6;0;Orbcomm
14.32739963;0.0004527;45.0368;153.636;297.4696;62.569;0.00011401;1.72E-6;0;Orbcomm
14.32740369;0.0004517;45.0367;150.6876;300.0851;59.9547;0.00011135;1.65E-6;0;Orbcomm
14.32740612;0.0004496;45.0367;148.7221;301.8187;58.2222;0.00010831;1.57E-6;0;Orbcomm
14.32741042;0.0004478;45.0367;145.4461;304.718;55.3244;0.00010465;1.47E-6;0;Orbcomm
14.32741191;0.0004468;45.0367;144.1358;305.9898;54.0534;0.0001035;1.44E-6;0;Orbcomm
14.32722351;0.0004493;45.0367;139.5497;311.5384;48.5077;0.00011807;1.84E-6;0;Orbcomm
14.32722462;0.000443;45.0368;134.9635;315.6026;44.4465;8.4413E-5;9.1E-7;0;Orbcomm
14.32723143;0.0004387;45.0369;131.36;318.6618;41.3896;0.00011893;1.86E-6;0;Orbcomm
14.3272372;0.0004375;45.0369;130.0497;320.0265;40.0259;0.0001437;2.54E-6;0;Orbcomm
14.32723999;0.0004325;45.0371;125.4636;324.84;35.216;0.00012799;2.11E-6;0;Orbcomm
14.3272467;0.0004266;45.0372;120.8775;329.208;30.8516;0.00012782;2.1E-6;0;Orbcomm
14.3272519;0.0004218;45.0373;117.6016;332.3651;27.6971;0.00012794;2.11E-6;0;Orbcomm
14.32725387;0.0004202;45.0373;116.2914;333.7427;26.3206;0.00012703;2.08E-6;0;Orbcomm
14.32725759;0.0004148;45.0375;112.688;337.3419;22.7244;0.00011295;1.69E-6;0;Orbcomm
14.32726535;0.0004068;45.0376;107.1192;343.3196;16.7516;0.00010453;1.46E-6;0;Orbcomm
14.327272;0.0003994;45.0378;102.5331;348.1756;11.8996;0.00010224;1.4E-6;0;Orbcomm
14.32727564;0.0003946;45.0379;99.5848;351.228;8.8497;9.914E-5;1.31E-6;0;Orbcomm
14.3272768;0.0003932;45.0379;98.9297;351.9325;8.1458;0.00010036;1.35E-6;0;Orbcomm
14.32728224;0.0003873;45.0381;94.9987;356.2477;3.834;0.0001036;1.44E-6;0;Orbcomm
14.32728392;0.0003857;45.0381;94.0161;357.4242;2.6585;0.00010669;1.52E-6;0;Orbcomm
14.32728542;0.0003843;45.0381;93.0334;358.6175;1.4661;0.00010864;1.58E-6;0;Orbcomm
14.32728852;0.0003799;45.0382;90.4127;1.5129;358.5728;0.00010989;1.61E-6;0;Orbcomm
14.32729016;0.0003779;45.0383;89.1025;3.1826;356.9044;0.00011158;1.66E-6;0;Orbcomm
14.32729111;0.0003772;45.0383;88.4473;3.9285;356.1591;0.00011264;1.69E-6;0;Orbcomm
14.32729646;0.00037;45.0385;83.8613;9.3073;350.7841;0.00011403;1.72E-6;0;Orbcomm
